$$SOE
2460154.500000000, A.D. 2023-Jul-29 00:00:00.0000, -2.591742906496456E+08, 3.430971355247257E+08, 1.007186300498337E+06,
2460161.500000000, A.D. 2023-Aug-05 00:00:00.0000, -2.684955275707853E+08, 3.370591211810769E+08, 1.462334235016510E+06,
2460168.500000000, A.D. 2023-Aug-12 00:00:00.0000, -2.776539316486337E+08, 3.308166222541738E+08, 1.916596717763647E+06,
2460175.500000000, A.D. 2023-Aug-19 00:00:00.0000, -2.866450785945325E+08, 3.243747678731629E+08, 2.369706107294321E+06,
2460182.500000000, A.D. 2023-Aug-26 00:00:00.0000, -2.954647339478498E+08, 3.177387730047686E+08, 2.821399249334812E+06,
2460189.500000000, A.D. 2023-Sep-02 00:00:00.0000, -3.041088535117722E+08, 3.109139302371623E+08, 3.271417680006877E+06,
2460196.500000000, A.D. 2023-Sep-09 00:00:00.0000, -3.125735833864270E+08, 3.039056015941595E+08, 3.719507801215813E+06,
2460203.500000000, A.D. 2023-Sep-16 00:00:00.0000, -3.208552594483167E+08, 2.967192103401291E+08, 4.165421008251444E+06,
2460210.500000000, A.D. 2023-Sep-23 00:00:00.0000, -3.289504058777429E+08, 2.893602330788703E+08, 4.608913755172268E+06,
2460217.500000000, A.D. 2023-Sep-30 00:00:00.0000, -3.368557330929868E+08, 2.818341933518864E+08, 5.049747686815023E+06,
2460224.500000000, A.D. 2023-Oct-07 00:00:00.0000, -3.445681374657385E+08, 2.741466562075079E+08, 5.487690009306490E+06,
2460231.500000000, A.D. 2023-Oct-14 00:00:00.0000, -3.520847017970209E+08, 2.663032204413198E+08, 5.922513733424619E+06,
2460238.500000000, A.D. 2023-Oct-21 00:00:00.0000, -3.594026933417153E+08, 2.583095101192724E+08, 6.353997626522169E+06,
2460245.500000000, A.D. 2023-Oct-28 00:00:00.0000, -3.665195608264493E+08, 2.501711676499436E+08, 6.781926189125791E+06,
2460252.500000000, A.D. 2023-Nov-04 00:00:00.0000, -3.734329317328330E+08, 2.418938476437433E+08, 7.206089708476260E+06,
2460259.500000000, A.D. 2023-Nov-11 00:00:00.0000, -3.801406096882534E+08, 2.334832109661736E+08, 7.626284324432924E+06,
2460266.500000000, A.D. 2023-Nov-18 00:00:00.0000, -3.866405717636101E+08, 2.249449189255059E+08, 8.042312083185762E+06,
2460273.500000000, A.D. 2023-Nov-25 00:00:00.0000, -3.929309656238281E+08, 2.162846276207702E+08, 8.453980974745482E+06,
2460280.500000000, A.D. 2023-Dec-02 00:00:00.0000, -3.990101065208788E+08, 2.075079824412483E+08, 8.861104951470852E+06,
2460287.500000000, A.D. 2023-Dec-09 00:00:00.0000, -4.048764740680571E+08, 1.986206126597396E+08, 9.263503916395962E+06,
2460294.500000000, A.D. 2023-Dec-16 00:00:00.0000, -4.105287085230492E+08, 1.896281261315541E+08, 9.661003656688780E+06,
2460301.500000000, A.D. 2023-Dec-23 00:00:00.0000, -4.159656062456769E+08, 1.805361047837738E+08, 1.005343574707557E+07,
2460308.500000000, A.D. 2023-Dec-30 00:00:00.0000, -4.211861156859909E+08, 1.713501019392860E+08, 1.044063763239556E+07,
2460315.500000000, A.D. 2024-Jan-06 00:00:00.0000, -4.261893356931108E+08, 1.620756391106166E+08, 1.082245285925501E+07,
2460322.500000000, A.D. 2024-Jan-13 00:00:00.0000, -4.309745129888774E+08, 1.527182004541776E+08, 1.119873101845109E+07,
2460329.500000000, A.D. 2024-Jan-20 00:00:00.0000, -4.355410375959617E+08, 1.432832279655713E+08, 1.156932753845559E+07,
2460336.500000000, A.D. 2024-Jan-27 00:00:00.0000, -4.398884382630017E+08, 1.337761180627247E+08, 1.193410356960920E+07,
2460343.500000000, A.D. 2024-Feb-03 00:00:00.0000, -4.440163783291751E+08, 1.242022186038068E+08, 1.229292592100423E+07,
2460350.500000000, A.D. 2024-Feb-10 00:00:00.0000, -4.479246517624406E+08, 1.145668260442026E+08, 1.264566700115601E+07,
2460357.500000000, A.D. 2024-Feb-17 00:00:00.0000, -4.516131792425460E+08, 1.048751827345939E+08, 1.299220475078321E+07,
2460364.500000000, A.D. 2024-Feb-24 00:00:00.0000, -4.550820042618827E+08, 9.513247436820969E+07, 1.333242256598989E+07,
2460371.500000000, A.D. 2024-Mar-02 00:00:00.0000, -4.583312892232202E+08, 8.534382753758946E+07, 1.366620920686371E+07,
2460378.500000000, A.D. 2024-Mar-09 00:00:00.0000, -4.613613114031745E+08, 7.551430733058244E+07, 1.399345867396258E+07,
2460385.500000000, A.D. 2024-Mar-16 00:00:00.0000, -4.641724583929707E+08, 6.564891515507153E+07, 1.431407003289068E+07,
2460392.500000000, A.D. 2024-Mar-23 00:00:00.0000, -4.667652231263105E+08, 5.575258789316379E+07, 1.462794728741651E+07,
2460399.500000000, A.D. 2024-Mar-30 00:00:00.0000, -4.691402007420929E+08, 4.583019834918553E+07, 1.493499950480103E+07,
2460406.500000000, A.D. 2024-Apr-06 00:00:00.0000, -4.712980870338022E+08, 3.588655361568483E+07, 1.523514089496829E+07,
2460413.500000000, A.D. 2024-Apr-13 00:00:00.0000, -4.732396749406639E+08, 2.592639218717156E+07, 1.552829058663470E+07,
2460420.500000000, A.D. 2024-Apr-20 00:00:00.0000, -4.749658500361625E+08, 1.595438249084726E+07, 1.581437240695703E+07,
2460427.500000000, A.D. 2024-Apr-27 00:00:00.0000, -4.764775865351306E+08, 5.975122264473959E+06, 1.609331475829720E+07,
2460434.500000000, A.D. 2024-May-04 00:00:00.0000, -4.777759437366601E+08, -4.006861929505934E+06, 1.636505052688132E+07,
2460441.500000000, A.D. 2024-May-11 00:00:00.0000, -4.788620626685913E+08, -1.398711516187363E+07, 1.662951699357463E+07,
2460448.500000000, A.D. 2024-May-18 00:00:00.0000, -4.797371628543550E+08, -2.396125455129636E+07, 1.688665574145241E+07,
2460455.500000000, A.D. 2024-May-25 00:00:00.0000, -4.804025391794837E+08, -3.392496964935931E+07, 1.713641255774802E+07,
2460462.500000000, A.D. 2024-Jun-01 00:00:00.0000, -4.808595587996068E+08, -4.387402285989590E+07, 1.737873732043052E+07,
2460469.500000000, A.D. 2024-Jun-08 00:00:00.0000, -4.811096578448936E+08, -5.380424992195506E+07, 1.761358384538439E+07,
2460476.500000000, A.D. 2024-Jun-15 00:00:00.0000, -4.811543375222802E+08, -6.371155991755282E+07, 1.784090970253929E+07,
2460483.500000000, A.D. 2024-Jun-22 00:00:00.0000, -4.809951606210459E+08, -7.359193363537371E+07, 1.806067618959635E+07,
2460490.500000000, A.D. 2024-Jun-29 00:00:00.0000, -4.806337505441645E+08, -8.344142211790463E+07, 1.827284850949760E+07,
2460497.500000000, A.D. 2024-Jul-06 00:00:00.0000, -4.800717902222814E+08, -9.325614786922415E+07, 1.847739570745956E+07,
2460504.500000000, A.D. 2024-Jul-13 00:00:00.0000, -4.793110189615958E+08, -1.030323059040916E+08, 1.867429041997632E+07,
2460511.500000000, A.D. 2024-Jul-20 00:00:00.0000, -4.783532292099519E+08, -1.127661634946420E+08, 1.886350871204050E+07,
2460518.500000000, A.D. 2024-Jul-27 00:00:00.0000, -4.772002638963713E+08, -1.224540595799884E+08, 1.904502998438711E+07,
2460525.500000000, A.D. 2024-Aug-03 00:00:00.0000, -4.758540140713954E+08, -1.320924042190145E+08, 1.921883689508155E+07,
2460532.500000000, A.D. 2024-Aug-10 00:00:00.0000, -4.743164166824907E+08, -1.416776780949448E+08, 1.938491527986486E+07,
2460539.500000000, A.D. 2024-Aug-17 00:00:00.0000, -4.725894524361436E+08, -1.512064320533032E+08, 1.954325406861914E+07,
2460546.500000000, A.D. 2024-Aug-24 00:00:00.0000, -4.706751437167202E+08, -1.606752866986857E+08, 1.969384519341235E+07,
2460553.500000000, A.D. 2024-Aug-31 00:00:00.0000, -4.685755524438258E+08, -1.700809321153787E+08, 1.983668347225112E+07,
2460560.500000000, A.D. 2024-Sep-07 00:00:00.0000, -4.662927775001811E+08, -1.794201275895892E+08, 1.997176644506687E+07,
2460567.500000000, A.D. 2024-Sep-14 00:00:00.0000, -4.638289516429349E+08, -1.886897003418729E+08, 2.009909423524136E+07,
2460574.500000000, A.D. 2024-Sep-21 00:00:00.0000, -4.611862399260918E+08, -1.978865428616212E+08, 2.021866965623557E+07,
2460581.500000000, A.D. 2024-Sep-28 00:00:00.0000, -4.583668401215307E+08, -2.070076120756322E+08, 2.033049834408940E+07,
2460588.500000000, A.D. 2024-Oct-05 00:00:00.0000, -4.553729814696231E+08, -2.160499303523471E+08, 2.043458857932198E+07,
2460595.500000000, A.D. 2024-Oct-12 00:00:00.0000, -4.522069221192234E+08, -2.250105853633004E+08, 2.053095107491175E+07,
2460602.500000000, A.D. 2024-Oct-19 00:00:00.0000, -4.488709470053602E+08, -2.338867290742078E+08, 2.061959886879209E+07,
2460609.500000000, A.D. 2024-Oct-26 00:00:00.0000, -4.453673661943540E+08, -2.426755766694984E+08, 2.070054725824533E+07,
2460616.500000000, A.D. 2024-Nov-02 00:00:00.0000, -4.416985134370275E+08, -2.513744055613257E+08, 2.077381374042116E+07,
2460623.500000000, A.D. 2024-Nov-09 00:00:00.0000, -4.378667448317111E+08, -2.599805544646164E+08, 2.083941795184067E+07,
2460630.500000000, A.D. 2024-Nov-16 00:00:00.0000, -4.338744375693120E+08, -2.684914225397732E+08, 2.089738160459608E+07,
2460637.500000000, A.D. 2024-Nov-23 00:00:00.0000, -4.297239887115463E+08, -2.769044686546372E+08, 2.094772841093235E+07,
2460644.500000000, A.D. 2024-Nov-30 00:00:00.0000, -4.254178137920548E+08, -2.852172108099871E+08, 2.099048397369283E+07,
2460651.500000000, A.D. 2024-Dec-07 00:00:00.0000, -4.209583448189915E+08, -2.934272253094355E+08, 2.102567563862072E+07,
2460658.500000000, A.D. 2024-Dec-14 00:00:00.0000, -4.163480283655306E+08, -3.015321444510142E+08, 2.105333247178656E+07,
2460665.500000000, A.D. 2024-Dec-21 00:00:00.0000, -4.115893260644802E+08, -3.095296539827043E+08, 2.107348547346424E+07,
2460672.500000000, A.D. 2024-Dec-28 00:00:00.0000, -4.066847155329625E+08, -3.174174932913921E+08, 2.108616760514827E+07,
2460679.500000000, A.D. 2025-Jan-04 00:00:00.0000, -4.016366891291289E+08, -3.251934559507877E+08, 2.109141358594176E+07,
2460686.500000000, A.D. 2025-Jan-11 00:00:00.0000, -3.964477523606464E+08, -3.328553889691033E+08, 2.108925976128836E+07,
2460693.500000000, A.D. 2025-Jan-18 00:00:00.0000, -3.911204228595604E+08, -3.404011916558599E+08, 2.107974405326645E+07,
2460700.500000000, A.D. 2025-Jan-25 00:00:00.0000, -3.856572296777669E+08, -3.478288145834635E+08, 2.106290593148945E+07,
2460707.500000000, A.D. 2025-Feb-01 00:00:00.0000, -3.800607127117921E+08, -3.551362586751000E+08, 2.103878638496041E+07,
2460714.500000000, A.D. 2025-Feb-08 00:00:00.0000, -3.743334221970639E+08, -3.623215744005773E+08, 2.100742789135255E+07,
2460721.500000000, A.D. 2025-Feb-15 00:00:00.0000, -3.684779182415313E+08, -3.693828611011393E+08, 2.096887437964758E+07,
$$EOE